{
  "norad_id": 61946,
  "name": "STARLINK-11410 [DTC]",
  "history": [
    {
      "epoch": "2026-03-28T21:36:55.269216Z",
      "apogee_km": 360.2256504381585,
      "perigee_km": 359.00746459495986,
      "latitude_deg": -9.676539100761389e-06,
      "longitude_deg": 126.12505747769781,
      "height_km": 360.29199486109513,
      "semi_major_axis_km": 6737.753557516559,
      "eccentricity": 9.04e-05,
      "inclination_deg": 53.1569,
      "raan_deg": 276.6698,
      "arg_perigee_deg": 66.9727,
      "mean_anomaly_deg": 293.1386,
      "mean_motion_rev_day": 15.69748508
    },
    {
      "epoch": "2026-03-29T23:35:32.429472Z",
      "apogee_km": 360.1264118261997,
      "perigee_km": 358.87240293805826,
      "latitude_deg": -4.7966311012675894e-05,
      "longitude_deg": 90.0661579816809,
      "height_km": 360.5820850413537,
      "semi_major_axis_km": 6737.636407382129,
      "eccentricity": 9.306e-05,
      "inclination_deg": 53.1567,
      "raan_deg": 271.3326,
      "arg_perigee_deg": 105.6437,
      "mean_anomaly_deg": 254.4683,
      "mean_motion_rev_day": 15.69789449
    },
    {
      "epoch": "2026-03-30T22:30:48.338208Z",
      "apogee_km": 360.402768375965,
      "perigee_km": 358.63130437672044,
      "latitude_deg": -4.983456830352165e-05,
      "longitude_deg": 100.59993573917625,
      "height_km": 361.2656009403038,
      "semi_major_axis_km": 6737.654036376342,
      "eccentricity": 0.00013146,
      "inclination_deg": 53.1567,
      "raan_deg": 266.624,
      "arg_perigee_deg": 160.3963,
      "mean_anomaly_deg": 199.7105,
      "mean_motion_rev_day": 15.69783288
    },
    {
      "epoch": "2026-03-31T18:22:42.235104Z",
      "apogee_km": 359.81603861260555,
      "perigee_km": 358.51573915505105,
      "latitude_deg": -3.940975856896684e-06,
      "longitude_deg": 157.73017529515792,
      "height_km": 360.71768988184357,
      "semi_major_axis_km": 6737.302888883828,
      "eccentricity": 9.65e-05,
      "inclination_deg": 53.1574,
      "raan_deg": 262.5446,
      "arg_perigee_deg": 168.5439,
      "mean_anomaly_deg": 191.5601,
      "mean_motion_rev_day": 15.69906015
    },
    {
      "epoch": "2026-04-01T17:17:57.685920Z",
      "apogee_km": 361.411155052645,
      "perigee_km": 357.8441824370111,
      "latitude_deg": -5.4689906324551535e-06,
      "longitude_deg": 168.26606665486344,
      "height_km": 361.01982042306,
      "semi_major_axis_km": 6737.764668744828,
      "eccentricity": 0.0002647,
      "inclination_deg": 53.1567,
      "raan_deg": 257.8362,
      "arg_perigee_deg": 105.6442,
      "mean_anomaly_deg": 254.4868,
      "mean_motion_rev_day": 15.69744625
    },
    {
      "epoch": "2026-04-02T17:44:53.334816Z",
      "apogee_km": 359.6343134186991,
      "perigee_km": 358.8915824484384,
      "latitude_deg": -2.1243727133164582e-05,
      "longitude_deg": 155.5088091797171,
      "height_km": 360.5390504721294,
      "semi_major_axis_km": 6737.399947933568,
      "eccentricity": 5.512e-05,
      "inclination_deg": 53.1574,
      "raan_deg": 252.8149,
      "arg_perigee_deg": 193.4903,
      "mean_anomaly_deg": 166.61,
      "mean_motion_rev_day": 15.69872091
    },
    {
      "epoch": "2026-04-03T19:43:32.340576Z",
      "apogee_km": 360.55200734779737,
      "perigee_km": 359.08717558481385,
      "latitude_deg": -5.216245852208841e-05,
      "longitude_deg": 119.44340418298569,
      "height_km": 360.6120909371382,
      "semi_major_axis_km": 6737.956591466305,
      "eccentricity": 0.0001087,
      "inclination_deg": 53.1579,
      "raan_deg": 247.4789,
      "arg_perigee_deg": 80.4936,
      "mean_anomaly_deg": 279.6204,
      "mean_motion_rev_day": 15.69677557
    }
  ]
}